{
    "type": "FeatureCollection",
    "features": [
        {
            "type": "Feature",
            "properties": {
                "ip": "57.144.180.192",
                "url": "https://scontent-lga3-3.cdninstagram.com/o1/v/t2/f2/m78/AQOyWwtn0rfEwCxpaU9h7t1vZPcnqelWtyOAEerRb4NhyeTmz1xff30GkM1VXAPry-2hojiB7SkXAxDsm272ZUnKtUHfOzIaBEAu5po.mp4?_nc_cat=1&_nc_sid=9ca052&_nc_ht=scontent-lga3-3.cdninstagram.com&_nc_ohc=lbheiZou5_sQ7kNvwENY6mJ&efg=eyJ2ZW5jb2RlX3RhZyI6ImlnLXhwdmRzLmNsaXBzLmMyLUMzLmRhc2hfbG5faGVhYWNfdmJyM19hdWRpbyIsInZpZGVvX2lkIjpudWxsLCJvaWxfdXJsZ2VuX2FwcF9pZCI6OTM2NjE5NzQzMzkyNDU5LCJjbGllbnRfbmFtZSI6ImlnIiwieHB2X2Fzc2V0X2lkIjoxNjU3ODE3MDA5MDk0ODUyLCJhc3NldF9hZ2VfZGF5cyI6MCwidmlfdXNlY2FzZV9pZCI6MTAwOTksImR1cmF0aW9uX3MiOjEwLCJiaXRyYXRlIjo1OTUzMywidXJsZ2VuX3NvdXJjZSI6Ind3dyJ9&ccb=17-1&_nc_gid=hS72gz771J7cEaJlEUI9Gw&_nc_ss=7a22e&_nc_zt=28&oh=00_AQBQGqzcUVciKXDBauBadrAa7mTIF94nF2PS4M19iRGEpA&oe=6A6BFE2A&bytestart=0&byteend=823",
                "isp": "Facebook, Inc.",
                "org": "Facebook, Inc"
            },
            "geometry": {
                "type": "Point",
                "coordinates": [
                    -74.0066,
                    40.7126
                ]
            }
        },
        {
            "type": "Feature",
            "properties": {
                "ip": "157.240.241.63",
                "url": "https://static.cdninstagram.com/rsrc.php/v4iJZz4/yM/l/en_US-j/Lne3eFBxtJn.js",
                "isp": "Facebook, Inc.",
                "org": "Facebook, Inc."
            },
            "geometry": {
                "type": "Point",
                "coordinates": [
                    -74.0066,
                    40.7126
                ]
            }
        },
        {
            "type": "Feature",
            "properties": {
                "ip": "157.240.241.174",
                "url": "https://www.instagram.com/sync/instagram/",
                "isp": "Facebook, Inc.",
                "org": "Facebook, Inc."
            },
            "geometry": {
                "type": "Point",
                "coordinates": [
                    -74.0066,
                    40.7126
                ]
            }
        },
        {
            "type": "Feature",
            "properties": {
                "ip": "157.240.241.1",
                "url": "https://static.xx.fbcdn.net/rsrc.php/v4/yY/r/DdJWXfKx0yD.js",
                "isp": "Facebook, Inc.",
                "org": "Facebook, Inc."
            },
            "geometry": {
                "type": "Point",
                "coordinates": [
                    -74.0066,
                    40.7126
                ]
            }
        },
        {
            "type": "Feature",
            "properties": {
                "ip": "31.13.71.52",
                "url": "https://scontent-lga3-1.cdninstagram.com/o1/v/t2/f2/m367/AQM2i45-JYC2OHkLm1YQWPgBiHzyI_p_c0C3RHldS4uPhtddvyNB-2i2PGg8upYCqhZB5jRMkl5C1T3jPFG0ZGmEpSderHCwuYrCn0Qi9v8Oew.mp4?_nc_cat=103&_nc_sid=9ca052&_nc_ht=scontent-lga3-1.cdninstagram.com&_nc_ohc=shiQNDAMh_8Q7kNvwHus0lG&efg=eyJ2ZW5jb2RlX3RhZyI6ImlnLXhwdmRzLmNsaXBzLmMyLUMzLmRhc2hfdnA5LWJhc2ljLWdlbjJfMTA4MHAiLCJ2aWRlb19pZCI6bnVsbCwib2lsX3VybGdlbl9hcHBfaWQiOjkzNjYxOTc0MzM5MjQ1OSwiY2xpZW50X25hbWUiOiJpZyIsInhwdl9hc3NldF9pZCI6OTI1NTg1MDU5ODIyMjE0LCJhc3NldF9hZ2VfZGF5cyI6MCwidmlfdXNlY2FzZV9pZCI6MTAwOTksImR1cmF0aW9uX3MiOjE2LCJiaXRyYXRlIjoyNTkzNzM2LCJ1cmxnZW5fc291cmNlIjoid3d3In0%3D&ccb=17-1&_nc_gid=ohBZQ5Rt0zXhWioDa1yLLA&_nc_ss=7a22e&_nc_zt=28&oh=00_AQBN_MTRgyYy1FUzzDIi1A87teSnKrvH6nbtIU6f0dz5ZQ&oe=6A6FD7D5&bytestart=0&byteend=817",
                "isp": "Facebook, Inc.",
                "org": "Facebook, Inc"
            },
            "geometry": {
                "type": "Point",
                "coordinates": [
                    -74.0066,
                    40.7126
                ]
            }
        },
        {
            "type": "Feature",
            "properties": {
                "ip": "157.240.241.35",
                "url": "https://www.facebook.com/instagram/login_sync/",
                "isp": "Facebook, Inc.",
                "org": "Facebook, Inc."
            },
            "geometry": {
                "type": "Point",
                "coordinates": [
                    -74.0066,
                    40.7126
                ]
            }
        }
    ]
}