{
    "type": "FeatureCollection",
    "features": [
        {
            "type": "Feature",
            "geometry": {
                "type": "Point",
                "coordinates": [
                    -73.965454,
                    40.805481
                ]
            },
            "properties": {
                "label": "Tom's - 2880 Broadway, New York, New York 10025, United States",
                "marker-color": "#312E81",
                "marker-size": "medium",
                "marker-symbol": "restaurant",
                "name": "Tom's restaurant",
                "category": "restaurant",
                "area": "morningside"
            }
        },
        {
            "type": "Feature",
            "geometry": {
                "type": "Point",
                "coordinates": [
                    -73.966312,
                    40.805167
                ]
            },
            "properties": {
                "label": "The Heights Bar & Grill - 2867 Broadway, New York, New York 10025, United States",
                "marker-color": "rgba(89, 21, 62, 1)",
                "marker-size": "medium",
                "marker-symbol": "bar"
            }
        },
        {
            "type": "Feature",
            "geometry": {
                "type": "Point",
                "coordinates": [
                    -73.958717,
                    40.806121
                ]
            },
            "properties": {
                "label": "Morningside Park - Morningside Dr, New York, New York 10027, United States",
                "marker-color": "rgba(47, 130, 63, 1)",
                "marker-size": "medium",
                "marker-symbol": "park"
            }
        },
        {
            "type": "Feature",
            "geometry": {
                "type": "Point",
                "coordinates": [
                    -73.966287,
                    40.804246
                ]
            },
            "properties": {
                "label": "Westside Market NYC - 2840 Broadway, New York, New York 10025, United States",
                "marker-color": "rgba(130, 47, 129, 1)",
                "marker-size": "medium",
                "marker-symbol": "grocery"
            }
        },
        {
            "type": "Feature",
            "geometry": {
                "type": "Point",
                "coordinates": [
                    -73.963693,
                    40.803581
                ]
            },
            "properties": {
                "label": "The Hungarian Pastry Shop - 1030 Amsterdam Ave, New York, New York 10025, United States",
                "marker-color": "rgba(140, 124, 55, 1)",
                "marker-size": "medium",
                "marker-symbol": "bakery"
            }
        },
        {
            "type": "Feature",
            "geometry": {
                "type": "Point",
                "coordinates": [
                    -73.964935,
                    40.807114
                ]
            },
            "properties": {
                "label": "Starbucks - 2929 Broadway, New York, New York 10025, United States",
                "marker-color": "rgba(83, 36, 24, 1)",
                "marker-size": "medium",
                "marker-symbol": "cafe"
            }
        },
        {
            "type": "Feature",
            "geometry": {
                "type": "Point",
                "coordinates": [
                    -73.98595,
                    40.75765
                ]
            },
            "bbox": [
                -73.9884,
                40.7546,
                -73.9835,
                40.7607
            ],
            "properties": {
                "label": "Times Square - Manhattan, New York, United States",
                "marker-color": "rgba(47, 125, 130, 1)",
                "marker-size": "medium",
                "marker-symbol": "city"
            }
        },
        {
            "type": "Feature",
            "geometry": {
                "type": "Point",
                "coordinates": [
                    -73.967216,
                    40.802937
                ]
            },
            "properties": {
                "label": "Dunkin' - 2800 Broadway, New York, New York 10025, United States",
                "marker-color": "rgba(172, 169, 78, 1)",
                "marker-size": "medium",
                "marker-symbol": "bakery"
            }
        },
        {
            "type": "Feature",
            "geometry": {
                "type": "Point",
                "coordinates": [
                    -73.977142,
                    40.779974
                ]
            },
            "properties": {
                "label": "PopUp Bagels - 338 Columbus Ave, New York, New York 10023, United States",
                "marker-color": "rgba(154, 134, 59, 1)",
                "marker-size": "medium",
                "marker-symbol": "bakery"
            }
        },
        {
            "type": "Feature",
            "geometry": {
                "type": "Point",
                "coordinates": [
                    -73.987363,
                    40.759701
                ]
            },
            "properties": {
                "label": "787 coffee - 245 W 46th St, New York, New York 10036, United States",
                "marker-color": "rgba(87, 47, 37, 1)",
                "marker-size": "medium",
                "marker-symbol": "cafe"
            }
        },
        {
            "type": "Feature",
            "geometry": {
                "type": "Point",
                "coordinates": [
                    -73.984161,
                    40.760895
                ]
            },
            "properties": {
                "label": "Junior's Restaurant and Bakery - 1626 Broadway at, New York, New York 10019, United States",
                "marker-color": "#312E81",
                "marker-size": "medium",
                "marker-symbol": "restaurant"
            }
        },
        {
            "type": "Feature",
            "geometry": {
                "type": "Point",
                "coordinates": [
                    -73.984772,
                    40.756667
                ]
            },
            "properties": {
                "label": "Jimmy's Corner - 140 W 44th St, New York, New York 10036, United States",
                "marker-color": "rgba(130, 47, 82, 1)",
                "marker-size": "medium",
                "marker-symbol": "bar"
            }
        },
        {
            "type": "Feature",
            "geometry": {
                "type": "Point",
                "coordinates": [
                    -73.994652,
                    40.761379
                ]
            },
            "properties": {
                "label": "Target - 615 10th Avenue, New York, New York 10036, United States",
                "marker-color": "rgba(126, 47, 130, 1)",
                "marker-size": "medium",
                "marker-symbol": "grocery"
            }
        },
        {
            "type": "Feature",
            "geometry": {
                "type": "Point",
                "coordinates": [
                    -73.987977,
                    40.723663
                ]
            },
            "properties": {
                "label": "Bungalow - 24 1st Ave, New York, New York 10009, United States",
                "marker-color": "#312E81",
                "marker-size": "medium",
                "marker-symbol": "restaurant"
            }
        }
    ]
}