{"type": "FeatureCollection", "features": [{"type": "Feature", "properties": {"ip": "2600:141b:1c00:d95::3bd4", "url": "https://www.amazon.com/tt/i", "isp": "Akamai International B.V.", "org": "Akamai Technologies"}, "geometry": {"type": "Point", "coordinates": [-74.056, 40.7908]}}, {"type": "Feature", "properties": {"ip": "2600:9000:2209:6200:1d:d7f6:39d6:4401", "url": "https://m.media-amazon.com/images/I/01IEzbjyWWL.js?xcp", "isp": "Amazon.com, Inc.", "org": "AWS CloudFront (GLOBAL)"}, "geometry": {"type": "Point", "coordinates": [-122.336, 47.6157]}}, {"type": "Feature", "properties": {"ip": "2a04:4e42:56::272", "url": "https://m.media-amazon.com/images/I/61izMLE+ooL._SR427,684_.jpg", "isp": "Fastly, Inc.", "org": "Fastly, Inc"}, "geometry": {"type": "Point", "coordinates": [-74.1691, 40.7399]}}, {"type": "Feature", "properties": {"ip": "44.215.129.188", "url": "https://unagi.amazon.com/1/events/com.amazon.csm.customsg.prod", "isp": "Amazon.com", "org": "Amazon Technologies Inc. (us-east-1)"}, "geometry": {"type": "Point", "coordinates": [-77.4874, 39.0438]}}, {"type": "Feature", "properties": {"ip": "100.59.252.48", "url": "https://fls-na.amazon.com/1/batch/1/OP/ATVPDKIKX0DER:141-0876938-1078333:H7EJA3BB5669TV868Q3M$uedata=s:%2Frd%2Fuedata%3Fat%26v%3D0.355823.0%26id%3DH7EJA3BB5669TV868Q3M%26m%3D1%26sc%3Dcsa%3Alcp%26lcp%3D130%26pc%3D1557%26at%3D1557%26t%3D1785464814547%26csmtags%3Daui%3Asw%3Abrowser%3Aregister%3Asupported%26pty%3DGateway%26spty%3Ddesktop%26pti%3Ddesktop%26tid%3DWDV838319V4BHH1H02C7%26aftb%3D1%26lob%3D1:1557", "isp": "Amazon.com, Inc.", "org": "AWS EC2 (us-east-1)"}, "geometry": {"type": "Point", "coordinates": [-77.4874, 39.0438]}}, {"type": "Feature", "properties": {"ip": "2600:9000:2510:c200:1d:d7f6:39d6:4401", "url": "https://images-na.ssl-images-amazon.com/images/I/215h87l68bL.js", "isp": "Amazon.com, Inc.", "org": "AWS CloudFront (GLOBAL)"}, "geometry": {"type": "Point", "coordinates": [-122.336, 47.6157]}}, {"type": "Feature", "properties": {"ip": "2600:141b:1c00:2e::1730:e009", "url": "https://m.media-amazon.com/images/G/01/msa/vowels/metrics.jpg?time=1785464821036&rand=615802", "isp": "Akamai International B.V.", "org": "Akamai Technologies"}, "geometry": {"type": "Point", "coordinates": [-74.056, 40.7908]}}, {"type": "Feature", "properties": {"ip": "44.215.116.52", "url": "https://unagi.amazon.com/1/events/com.amazon.csm.csa.prod", "isp": "Amazon.com", "org": "Amazon Technologies Inc. (us-east-1)"}, "geometry": {"type": "Point", "coordinates": [-77.4874, 39.0438]}}, {"type": "Feature", "properties": {"ip": "18.235.224.217", "url": "https://usersync.samplicio.us/amazon/pixel.gif?https://s.amazon-adsystem.com/ecm3?ex=luc.id&id=", "isp": "Amazon.com, Inc.", "org": "AWS EC2 (us-east-1)"}, "geometry": {"type": "Point", "coordinates": [-77.4874, 39.0438]}}, {"type": "Feature", "properties": {"ip": "98.82.154.76", "url": "https://s.amazon-adsystem.com/iu3?d=amazon.com&slot=navFooter&a2=0101e661c359e13b61a3590b3202346f450df133828d2cadcdf541f33473ea830e7e&old_oo=0&ts=1785464814380&s=AVqVDrdtvrihY1eVINKvMEiAGti2hfFB1eGVdf8pbwEv&gdpr_consent=&gdpr_consent_avl=&cb=1785464814380", "isp": "Amazon.com, Inc.", "org": "Amazon Technologies Inc. (us-east-1)"}, "geometry": {"type": "Point", "coordinates": [-77.4874, 39.0438]}}, {"type": "Feature", "properties": {"ip": "44.215.137.152", "url": "https://unagi-na.amazon.com/1/events/com.amazon.BotCXPolicy.na.prod.bd", "isp": "Amazon.com", "org": "Amazon Technologies Inc. (us-east-1)"}, "geometry": {"type": "Point", "coordinates": [-77.4874, 39.0438]}}, {"type": "Feature", "properties": {"ip": "44.215.139.172", "url": "https://unagi.amazon.com/1/events/com.amazon.csm.csa.prod", "isp": "Amazon.com", "org": "Amazon Technologies Inc. (us-east-1)"}, "geometry": {"type": "Point", "coordinates": [-77.4874, 39.0438]}}, {"type": "Feature", "properties": {"ip": "13.33.61.87", "url": "https://c.amazon-adsystem.com/bao-csm/forensics/a9-tq-forensics-incremental.min.js", "isp": "Amazon.com, Inc.", "org": "AWS CloudFront (GLOBAL)"}, "geometry": {"type": "Point", "coordinates": [-74.0066, 40.7126]}}]}