{
  "type": "FeatureCollection",
  "features": [
    {
      "type": "Feature",
      "properties": {
        "ip": "2600:9000:2209:6200:1d:d7f6:39d6:4401",
        "url": "https://m.media-amazon.com/images/I/11ZxbGB3PBL.css?AUIClients/WebFlowIngressJs",
        "provider": "AWS"
      },
      "geometry": {
        "type": "Point",
        "coordinates": [
          -122.336,
          47.6157
        ]
      }
    },
    {
      "type": "Feature",
      "properties": {
        "ip": "18.235.224.217",
        "url": "https://usersync.samplicio.us/amazon/pixel.gif?https://s.amazon-adsystem.com/ecm3?ex=luc.id&id=",
        "provider": "AWS"
      },
      "geometry": {
        "type": "Point",
        "coordinates": [
          -77.4874,
          39.0438
        ]
      }
    },
    {
      "type": "Feature",
      "properties": {
        "ip": "44.215.137.152",
        "url": "https://unagi-na.amazon.com/1/events/com.amazon.eel.katal.metrics.core.nexus",
        "provider": "AWS"
      },
      "geometry": {
        "type": "Point",
        "coordinates": [
          -77.4874,
          39.0438
        ]
      }
    },
    {
      "type": "Feature",
      "properties": {
        "ip": "2600:141b:1c00:2e::1730:e009",
        "url": "https://m.media-amazon.com/images/I/41nnGOAwidL._AC_AIweblab1374086,T2_FMavif_SF217.5,435_QL54_.jpg?aicid=homepage-faceout",
        "provider": "Other/Unclassified"
      },
      "geometry": {
        "type": "Point",
        "coordinates": [
          -74.056,
          40.7908
        ]
      }
    },
    {
      "type": "Feature",
      "properties": {
        "ip": "44.215.116.52",
        "url": "https://unagi.amazon.com/1/events/com.amazon.csm.nexusclient.prod",
        "provider": "AWS"
      },
      "geometry": {
        "type": "Point",
        "coordinates": [
          -77.4874,
          39.0438
        ]
      }
    },
    {
      "type": "Feature",
      "properties": {
        "ip": "2600:141b:1c00:d95::3bd4",
        "url": "https://www.amazon.com/?&tag=amazusnavi-20&ref=pd_sl_28nm7nbam1_e&adgrpid=185319704606&hvpone=&hvptwo=&hvadid=793056977215&hvpos=&hvnetw=g&hvrand=16521740670897166020&hvqmt=e&hvdev=c&hvdvcmdl=&hvlocint=&hvlocphy=9073502&hvtargid=kwd-360364908397&hydadcr=28884_15009378_1546077&mcid=adfdaf019ea13ff5af2dd6b5b801add6&hvocijid=16521740670897166020--&hvexpln=nav",
        "provider": "Other/Unclassified"
      },
      "geometry": {
        "type": "Point",
        "coordinates": [
          -74.056,
          40.7908
        ]
      }
    },
    {
      "type": "Feature",
      "properties": {
        "ip": "44.215.129.188",
        "url": "https://unagi.amazon.com/1/events/com.amazon.csm.csa.prod",
        "provider": "AWS"
      },
      "geometry": {
        "type": "Point",
        "coordinates": [
          -77.4874,
          39.0438
        ]
      }
    },
    {
      "type": "Feature",
      "properties": {
        "ip": "100.59.252.48",
        "url": "https://fls-na.amazon.com/1/batch/1/OP/ATVPDKIKX0DER:141-0876938-1078333:H7EJA3BB5669TV868Q3M$uedata=s:%2Frd%2Fuedata%3Fat%26v%3D0.355823.0%26id%3DH7EJA3BB5669TV868Q3M%26m%3D1%26sc%3Dcsa%3Alcp%26lcp%3D130%26pc%3D1557%26at%3D1557%26t%3D1785464814547%26csmtags%3Daui%3Asw%3Abrowser%3Aregister%3Asupported%26pty%3DGateway%26spty%3Ddesktop%26pti%3Ddesktop%26tid%3DWDV838319V4BHH1H02C7%26aftb%3D1%26lob%3D1:1557",
        "provider": "AWS"
      },
      "geometry": {
        "type": "Point",
        "coordinates": [
          -77.4874,
          39.0438
        ]
      }
    },
    {
      "type": "Feature",
      "properties": {
        "ip": "2a04:4e42:56::272",
        "url": "https://m.media-amazon.com/images/I/61izMLE+ooL._SR427,684_.jpg",
        "provider": "Other/Unclassified"
      },
      "geometry": {
        "type": "Point",
        "coordinates": [
          -74.1691,
          40.7399
        ]
      }
    },
    {
      "type": "Feature",
      "properties": {
        "ip": "44.215.139.172",
        "url": "https://unagi.amazon.com/1/events/com.amazon.cbb.prod",
        "provider": "AWS"
      },
      "geometry": {
        "type": "Point",
        "coordinates": [
          -77.4874,
          39.0438
        ]
      }
    },
    {
      "type": "Feature",
      "properties": {
        "ip": "13.33.61.87",
        "url": "https://c.amazon-adsystem.com/bao-csm/forensics/a9-tq-forensics-incremental.min.js",
        "provider": "AWS"
      },
      "geometry": {
        "type": "Point",
        "coordinates": [
          -74.0066,
          40.7126
        ]
      }
    },
    {
      "type": "Feature",
      "properties": {
        "ip": "98.82.154.76",
        "url": "https://s.amazon-adsystem.com/v3/pr?exlist=adelphic_n-samba.tv_n-lucid&fv=1.0&a=cm&dmt=1&gdpr_consent=&gdpr=0",
        "provider": "AWS"
      },
      "geometry": {
        "type": "Point",
        "coordinates": [
          -77.4874,
          39.0438
        ]
      }
    },
    {
      "type": "Feature",
      "properties": {
        "ip": "2600:9000:2510:c200:1d:d7f6:39d6:4401",
        "url": "https://images-na.ssl-images-amazon.com/images/I/215h87l68bL.js",
        "provider": "AWS"
      },
      "geometry": {
        "type": "Point",
        "coordinates": [
          -122.336,
          47.6157
        ]
      }
    }
  ]
}