{
  "type": "FeatureCollection",
  "features": [
    {
      "type": "Feature",
      "properties": {
        "ip": "34.120.202.204",
        "url": "https://arclight.vimeo.com/add/player-stats?beacon=1&session-id=65c29443966a31c84130b60028bb54cedec067591785534085",
        "provider": "Google Cloud"
      },
      "geometry": {
        "type": "Point",
        "coordinates": [
          -94.5785,
          39.0997
        ]
      }
    },
    {
      "type": "Feature",
      "properties": {
        "ip": "2600:141b:1c00:8::1728:b346",
        "url": "https://use.typekit.net/af/2011b6/00000000000000003b9b00c1/27/l?primer=7fa3915bdafdf03041871920a205bef951d72bf64dd4c4460fb992e3ecc3a862&fvd=n4&v=3",
        "provider": "Other/Unclassified"
      },
      "geometry": {
        "type": "Point",
        "coordinates": [
          -74.056,
          40.7908
        ]
      }
    },
    {
      "type": "Feature",
      "properties": {
        "ip": "162.159.138.64",
        "url": "https://www.columbia.edu/content/sites/www.columbia.edu.content/files/styles/cu_crop/public/content/explore-giving-8521-512x456%20%281%29.jpg.webp?itok=TjgiAq4b",
        "provider": "Cloudflare"
      },
      "geometry": {
        "type": "Point",
        "coordinates": [
          -79.3832,
          43.6532
        ]
      }
    },
    {
      "type": "Feature",
      "properties": {
        "ip": "2607:f8b0:4006:811::2003",
        "url": "https://www.gstatic.com/eureka/clank/150/cast_sender.js",
        "provider": "Other/Unclassified"
      },
      "geometry": {
        "type": "Point",
        "coordinates": [
          -122.085,
          37.4225
        ]
      }
    },
    {
      "type": "Feature",
      "properties": {
        "ip": "162.159.128.61",
        "url": "https://player.vimeo.com/video/1205007125?badge=0&autopause=0&player_id=0&app_id=58479",
        "provider": "Cloudflare"
      },
      "geometry": {
        "type": "Point",
        "coordinates": [
          -79.3832,
          43.6532
        ]
      }
    },
    {
      "type": "Feature",
      "properties": {
        "ip": "2607:f8b0:4006:802::2003",
        "url": "https://www.gstatic.com/cv/js/sender/v1/cast_sender.js?loadCastFramework=1",
        "provider": "Other/Unclassified"
      },
      "geometry": {
        "type": "Point",
        "coordinates": [
          -122.085,
          37.4225
        ]
      }
    },
    {
      "type": "Feature",
      "properties": {
        "ip": "199.232.36.217",
        "url": "https://f.vimeocdn.com/p/4.46.85/css/player.css",
        "provider": "Other/Unclassified"
      },
      "geometry": {
        "type": "Point",
        "coordinates": [
          -74.0066,
          40.7126
        ]
      }
    },
    {
      "type": "Feature",
      "properties": {
        "ip": "2001:4860:482c:400::",
        "url": "https://www.youtube.com/iframe_api",
        "provider": "Other/Unclassified"
      },
      "geometry": {
        "type": "Point",
        "coordinates": [
          -73.5674,
          45.5019
        ]
      }
    },
    {
      "type": "Feature",
      "properties": {
        "ip": "2607:f8b0:4006:814::2008",
        "url": "https://www.googletagmanager.com/gtag/js?id=UA-18290390-1",
        "provider": "Other/Unclassified"
      },
      "geometry": {
        "type": "Point",
        "coordinates": [
          -122.085,
          37.4225
        ]
      }
    },
    {
      "type": "Feature",
      "properties": {
        "ip": "2606:4700::6811:190e",
        "url": "https://cdnjs.cloudflare.com/ajax/libs/lodash.js/4.17.21/lodash.min.js",
        "provider": "Cloudflare"
      },
      "geometry": {
        "type": "Point",
        "coordinates": [
          -73.5674,
          45.5019
        ]
      }
    },
    {
      "type": "Feature",
      "properties": {
        "ip": "162.159.138.60",
        "url": "https://player.vimeo.com/api/player.js",
        "provider": "Cloudflare"
      },
      "geometry": {
        "type": "Point",
        "coordinates": [
          -79.3832,
          43.6532
        ]
      }
    },
    {
      "type": "Feature",
      "properties": {
        "ip": "2a04:4e42:400::411",
        "url": "https://code.jquery.com/ui/1.12.1/themes/base/jquery-ui.css",
        "provider": "Other/Unclassified"
      },
      "geometry": {
        "type": "Point",
        "coordinates": [
          8.68213,
          50.1109
        ]
      }
    },
    {
      "type": "Feature",
      "properties": {
        "ip": "2607:f8b0:4006:803::200e",
        "url": "https://www.google-analytics.com/analytics.js",
        "provider": "Other/Unclassified"
      },
      "geometry": {
        "type": "Point",
        "coordinates": [
          -122.085,
          37.4225
        ]
      }
    },
    {
      "type": "Feature",
      "properties": {
        "ip": "2600:141b:1c00:8::1728:b338",
        "url": "https://p.typekit.net/p.gif?s=1&k=rke7urc&ht=tk&h=www.columbia.edu&f=139.171.173.175.176.5474.25136.6770.6771.15665&a=637006&js=1.21.0&app=typekit&e=js&_=1785534085183",
        "provider": "Other/Unclassified"
      },
      "geometry": {
        "type": "Point",
        "coordinates": [
          -74.056,
          40.7908
        ]
      }
    },
    {
      "type": "Feature",
      "properties": {
        "ip": "2001:4860:4828:7700::",
        "url": "https://www.youtube.com/s/player/bed7a914/www-widgetapi.vflset/www-widgetapi.js",
        "provider": "Other/Unclassified"
      },
      "geometry": {
        "type": "Point",
        "coordinates": [
          -73.5674,
          45.5019
        ]
      }
    },
    {
      "type": "Feature",
      "properties": {
        "ip": "2607:f8b0:4006:800::200e",
        "url": "https://analytics.google.com/g/collect?v=2&tid=G-09H1KYXPLX&gtm=45je67t1h1v9104691888za200&_p=1785534084587&gcd=13l3l3l3l3l1&npa=1&dma=0&gdid=dMDhkMT&ecid=35516147&_eu=AAAAAGQ&are=1&cid=2131787316.1779388481&ec_mode=a&frm=0&lps=1&pscdl=noapi&rcb=19&sr=1280x720&uaa=x86&uab=64&uafvl=Not%253BA%253DBrand%3B8.0.0.0%7CChromium%3B150.0.7871.187%7CGoogle%2520Chrome%3B150.0.7871.187&uam=&uamb=0&uap=Windows&uapv=19.0.0&uaw=0&ul=en-us&gaf=2&_s=1&tag_exp=115616985~115938466~115938469~118395334~118897920~118897930~119896803~120222307&sid=1785534077&sct=1&seg=1&dl=https%3A%2F%2Fwww.columbia.edu%2F&dr=https%3A%2F%2Fwww.google.com%2F&dt=Columbia%20University%20in%20the%20City%20of%20New%20York&en=page_view&_ee=1&ep.page_placeholder=PLACEHOLDER_page_location&tfd=689",
        "provider": "Other/Unclassified"
      },
      "geometry": {
        "type": "Point",
        "coordinates": [
          -122.085,
          37.4225
        ]
      }
    }
  ]
}