{"type": "FeatureCollection", "features": [{"type": "Feature", "properties": {"ip": "157.240.241.63", "url": "https://scontent-lga3-2.cdninstagram.com/o1/v/t2/f2/m78/AQMZTDAaCbyEiVyZndvSlFEfsv6xnTbpGliB6FJ9QpRuINOwSZmI-fVrR4UbWKA6M_Un2U0XlWOHAeUOu_5EiQ9mnd56dfPTzICk-hU.mp4?_nc_cat=105&_nc_sid=9ca052&_nc_ht=scontent-lga3-2.cdninstagram.com&_nc_ohc=_AoFxOvLm0YQ7kNvwEbp0KM&efg=eyJ2ZW5jb2RlX3RhZyI6ImlnLXhwdmRzLmNsaXBzLmMyLUMzLmRhc2hfbG5faGVhYWNfdmJyM19hdWRpbyIsInZpZGVvX2lkIjpudWxsLCJvaWxfdXJsZ2VuX2FwcF9pZCI6OTM2NjE5NzQzMzkyNDU5LCJjbGllbnRfbmFtZSI6ImlnIiwieHB2X2Fzc2V0X2lkIjoxNTg4MDM2MDU2MDI3MjY2LCJhc3NldF9hZ2VfZGF5cyI6MCwidmlfdXNlY2FzZV9pZCI6MTA4MjcsImR1cmF0aW9uX3MiOjksImJpdHJhdGUiOjU2MDk2LCJ1cmxnZW5fc291cmNlIjoid3d3In0%3D&ccb=17-1&_nc_gid=ohBZQ5Rt0zXhWioDa1yLLA&_nc_ss=7a22e&_nc_zt=28&oh=00_AQDj0oacpCI-__DvbZpTNPRxIiN7EDNhbT1rzsrxiRjRYg&oe=6A6BF16A&bytestart=916&byteend=13827"}, "geometry": {"type": "Point", "coordinates": [-74.0066, 40.7126]}}, {"type": "Feature", "properties": {"ip": "57.144.180.192", "url": "https://scontent-lga3-3.cdninstagram.com/o1/v/t2/f2/m367/AQP2NJy6PO0zt6nKP0FnIXI-zQzVrCc42LlLucM0ABc6UQRjEfyTTsXdYDW-1CbqoAlR6VswZt6IMDMhsb9A9GX1nqeLTps3kMMaOLCLq1-E1A.mp4?_nc_cat=108&_nc_sid=9ca052&_nc_ht=scontent-lga3-3.cdninstagram.com&_nc_ohc=0lYweozG9y4Q7kNvwEYHaNa&efg=eyJ2ZW5jb2RlX3RhZyI6ImlnLXhwdmRzLmNsaXBzLmMyLUMzLmRhc2hfdnA5LWJhc2ljLWdlbjJfMzYwcCIsInZpZGVvX2lkIjpudWxsLCJvaWxfdXJsZ2VuX2FwcF9pZCI6OTM2NjE5NzQzMzkyNDU5LCJjbGllbnRfbmFtZSI6ImlnIiwieHB2X2Fzc2V0X2lkIjoxODQzOTAzMDk2NjEyNTIzMSwiYXNzZXRfYWdlX2RheXMiOjAsInZpX3VzZWNhc2VfaWQiOjEyMzc0LCJkdXJhdGlvbl9zIjoxNSwiYml0cmF0ZSI6NDQyMzk2LCJ1cmxnZW5fc291cmNlIjoid3d3In0%3D&ccb=17-1&_nc_gid=ohBZQ5Rt0zXhWioDa1yLLA&_nc_ss=7a22e&_nc_zt=28&oh=00_AQBINKefEcQfmEnGJt1ZBkhtaewzGVHirjFYRPWxqDuv1g&oe=6A6FF5BC&bytestart=359784&byteend=845263"}, "geometry": {"type": "Point", "coordinates": [-74.0066, 40.7126]}}, {"type": "Feature", "properties": {"ip": "31.13.71.52", "url": "https://scontent-lga3-1.cdninstagram.com/o1/v/t2/f2/m78/AQMxYWW5ZaffUYLoSB8jlh1A79FCgG7Sn6SrAWSx-YjnGHgbSge0JC4ManrU2z9A__tcQybl1EK4G1LLSiYlZannX5WvBRRXuMrDkcc.mp4?_nc_cat=111&_nc_sid=9ca052&_nc_ht=scontent-lga3-1.cdninstagram.com&_nc_ohc=KHWFjeOW4jYQ7kNvwH10bcw&efg=eyJ2ZW5jb2RlX3RhZyI6ImlnLXhwdmRzLmNsaXBzLmMyLUMzLmRhc2hfbG5faGVhYWNfdmJyM19hdWRpbyIsInZpZGVvX2lkIjpudWxsLCJvaWxfdXJsZ2VuX2FwcF9pZCI6OTM2NjE5NzQzMzkyNDU5LCJjbGllbnRfbmFtZSI6ImlnIiwieHB2X2Fzc2V0X2lkIjoxODQzOTAzMDk2NjEyNTIzMSwiYXNzZXRfYWdlX2RheXMiOjAsInZpX3VzZWNhc2VfaWQiOjEyMzc0LCJkdXJhdGlvbl9zIjoxNSwiYml0cmF0ZSI6NjM3ODEsInVybGdlbl9zb3VyY2UiOiJ3d3cifQ%3D%3D&ccb=17-1&_nc_gid=ohBZQ5Rt0zXhWioDa1yLLA&_nc_ss=7a22e&_nc_zt=28&oh=00_AQAc6KzLo2gxugqWRx_VFp5yPXSQv9oh_1Qq_3X-iY4tWA&oe=6A6BF864&bytestart=0&byteend=823"}, "geometry": {"type": "Point", "coordinates": [-74.0066, 40.7126]}}, {"type": "Feature", "properties": {"ip": "157.240.241.35", "url": "https://www.facebook.com/instagram/login_sync/"}, "geometry": {"type": "Point", "coordinates": [-74.0066, 40.7126]}}, {"type": "Feature", "properties": {"ip": "157.240.241.1", "url": "https://static.xx.fbcdn.net/btmanifest/1044065994/facebook/main"}, "geometry": {"type": "Point", "coordinates": [-74.0066, 40.7126]}}, {"type": "Feature", "properties": {"ip": "157.240.241.174", "url": "https://www.instagram.com/ajax/bootloader-endpoint/?modules=PolarisImmersiveFeedPostModal.react&__d=www&__user=0&__a=1&__req=b&__hs=20663.HYP%3Ainstagram_web_pkg.2.1...0&dpr=1&__ccg=GOOD&__rev=1044050712&__s=j9mcfw%3Ajgtj31%3Al0s3gd&__hsi=7667958182241098846&__dyn=7xeUjG1mxu1syaxG4Vp41twpUnwgU7SbzEdF8vyUco2qwJyEiw50x609vCwjE1EEc87m0yE462mcw5Mx62G5UswoEcE7O2l0Fwqo5W1yw9O1lwxwQzXwae4UaEW2G0AEco5G0zK5o4q0HU1wEbUGdwtUeo9UaQ0Lo6-bwHwKG6Ufk0zU8oC1IwjUpwlAcwBwUQp1yU426V89F8uwm8jw4kyVrx60jy7EG3a18whE984O0XEdoR0&__csr=h4AbM8mPOl9sbh2bBEGZ44knnW_IzJBAW8iQsheIlbjHp7lbFSHOUR4j4QbJGytoigxvgCBEQn9jnsDyvDl5he8CGrAmV6fxaQpbgOWDKuDy156GVkkzlbgOiQqZd2kh9aqbGuUCaz8KUpypo-udzA8yryQuay8Kq4oW48SiaGi8DV8yKdDyohAG8xmqml2oG9giDzbCxqdHGLUl-imuawJx6umcyUKfz8oxiewzx2EmwyK5E5a3S1dt00o080Gm025S00PC80WS0He0c5A9wtEC04cC0mObwMU24AAw1ay0u-0nSUlwoECbDw7Dy5A70dS0jG0sRBy8W0C9EjwoEy13Ix8twTxS1mzo0OWi1lo05Se02V8w3Cw0DxA80je3q&__hsdp=g8Y7Vgphquz9yF26hj4sHA9HaFeKCE83bXV8iGi9xLBInxs_S6UQg1DLu350n8dErS1qwoSny4meC86FOQUe84O18w8mawgo88doyu1czU4q2e582By-bwi8eEsxem2t0ww4bwkUiwXU1880Ee1ew2480mAwkEfo0yK0ju0kK0l9a2O0l60qq481bUpg1xQ0gJ03i81Toswzw2j67WmA&__hblp=0Qx20yU4y22UkyokxW2muq1awYxvSaG8jBDocUy3Oqdxd1idxLwbG64h2p9EhyWy9FErxl1-fxeuq5opx10o8vAyE4621e4Ety9Uc9Ujy9EvwCwzxi7EObwi898LKu18wWxO4VoSbzk220ypE7Gewh8iwHz83cwm86u7Wyo4m3-0KE5O1gwjE1cE3tw2woG3m0bxwkEfo0yK0PU6u0Ko2hxa3K0JUd8miwyyoswj83Dw6Cx20i-q4AcwBw5kg12Q5E0K-11wj84W0RU6B6xi68G0A82Bw8C786Vx-BF0&__sjsp=g8Y7Vwx115FAcCazAkN7aV2qOGjHFG20O--i4GzEtBIm2lxK&__comet_req=7&fb_dtsg_ag=Ad5eUeOLHvgQAFkcifPRyBWOtbeJd9HTbswn4LKiYH2T1OxO%3A17865553615041151%3A1785335531&jazoest=25688&__spin_r=1044050712&__spin_b=trunk&__spin_t=1785335639&__crn=comet.igweb.PolarisFeedRoute"}, "geometry": {"type": "Point", "coordinates": [-74.0066, 40.7126]}}]}