{"type": "FeatureCollection", "features": [{"type": "Feature", "properties": {"ip": "2001:4860:482d:400::", "url": "https://www.youtube.com/api/stats/qoe?fmt=396&afmt=251&cpn=ubFy5S4qPv_a1hXB&el=detailpage&ns=yt&fexp=v1%2C24004644%2C15321210%2C11737789%2C9105%2C22730%2C2821%2C124674%2C77203%2C65%2C13917%2C26504%2C9252%2C3479%2C13030%2C23206%2C69841%2C8206%2C2625%2C1904%2C18126%2C15105%2C25059%2C4174%2C30447%2C18705%2C21437%2C4571%2C9671%2C19432%2C6620%2C2784%2C23826%2C9500%2C1840%2C14783%2C9776%2C6962%2C14194%2C13160%2C56551%2C2364%2C1836%2C30113%2C6491%2C2690%2C7242%2C8174%2C82%2C29960%2C7524%2C367%2C5666%2C1168%2C372%2C7758%2C16453%2C9040%2C3475%2C5353%2C12390%2C2248%2C115%2C72%2C86%2C11809%2C2042%2C11009%2C756%2C9496%2C7727%2C13330%2C3895%2C6163%2C904%2C653%2C2%2C1343%2C6548%2C1295%2C5518%2C770%2C4458%2C3%2C2%2C15988%2C457%2C1191%2C264%2C4313%2C1585%2C4006%2C428%2C16165%2C6434%2C6263%2C760&cl=955573559&adformat=15_6&seq=2&adcontext=CAESEwjjmOzr7v2VAxXIPIoDHV_hPPcgBygE&docid=3jUfr6rXcbM&ei=exRtap-4CKSeoPMP7aaX6QQ&event=streamingstats&plid=AAZX7u3ER1kqnYjh&sdetail=p%3A%2F&sourceid=y&cbr=Chrome&cbrver=150.0.0.0&c=WEB&cver=2.20260731.00.00&cplayer=UNIPLAYER&cos=Windows&cosver=10.0&cplatform=DESKTOP&bh=0.234:15.033,9.349:15.033,9.350:15.033,10.557:15.033&cmt=0.234:0.005,0.998:0.728,9.349:9.073,9.350:9.074,9.355:9.082,10.557:9.082&vps=0.234:PL,9.355:PA&user_intent=0.003&cfs=0.240:a.en:::s&bwm=9.349:384168:0.066&bwe=9.349:895934,9.350:895934,10.557:895934&bat=9.349:0.48:0,9.350:0.48:0,10.557:0.48:0&vis=9.349:3&df=10.557:3&qclc=ChB1YkZ5NVM0cVB2X2ExaFhCEAI", "isp": "Google LLC", "org": "Google LLC"}, "geometry": {"type": "Point", "coordinates": [-73.5674, 45.5019]}}, {"type": "Feature", "properties": {"ip": "2001:4860:4826:7700::", "url": "https://www.google.com/pagead/lvz?evtid=ACd6Ktx2EgcGtuwI8z3Kuu2gjKJv0mP0b55YgzZcfXZsYlUK3x3-hbFZCdM5ucaZ4bHAQ8zfKUhNQ-RrzoD7JApDBg0v3YXV2w&req_ts=1785533558&pg=MainAppBootstrap%3AHome&az=1&sigh=AB9vU43J-4lcMey6eQajrJLCHxNiyZSMQw", "isp": "Google LLC", "org": "Google LLC"}, "geometry": {"type": "Point", "coordinates": [-73.5674, 45.5019]}}, {"type": "Feature", "properties": {"ip": "2607:f8b0:4006:8::7", "url": "https://rr2---sn-ab5l6nr6.googlevideo.com/videoplayback?expire=1785555163&ei=exRtap-4CKSeoPMP7aaX6QQ&ip=2603%3A7001%3Ae0f0%3Ab6f0%3Aa55d%3Ade44%3A760e%3A3bea&id=o-AE5S7F10_I3T-IG5sJGACC_PSne4Sf1pxk1pddv_KiPC&source=youtube&requiressl=yes&xpc=EgVo2aDSNQ%3D%3D&met=1785533563%2C&mh=XS&mm=31%2C29&mn=sn-ab5l6nr6%2Csn-ab5sznzr&ms=au%2Crdu&mv=m&mvi=2&pl=36&rms=au%2Cau&initcwndbps=3726250&siu=1&spc=KBGBclXeAAWwAi8aX-cN2WrXemX8B959Xl1fdUkRH7kE6rKAgJ_5aKI&svpuc=1&ns=kXkek_2g20js4c850hi_ExoX&sabr=1&rqh=1&mt=1785533144&fvip=3&keepalive=yes&fexp=51565116%2C51973818&c=WEB&n=qTXebUo9BWJr-w&sparams=expire%2Cei%2Cip%2Cid%2Csource%2Crequiressl%2Cxpc%2Csiu%2Cspc%2Csvpuc%2Cns%2Csabr%2Crqh&sig=AE0s2JYwRQIgCmI8q6F6d_UMf-2Xcu4YbdcjG1Btoj7bIiGXX5QoWFoCIQClUgF2QRkrAWPQeetb9Y3gUqcp9gw54azR_i7HffOQkQ%3D%3D&lsparams=met%2Cmh%2Cmm%2Cmn%2Cms%2Cmv%2Cmvi%2Cpl%2Crms%2Cinitcwndbps&lsig=APaTxxMwRgIhAJLIZ2SC0wVS4UXEaro4APSUipQXbDvUjq1DcA94hzlYAiEAyRK0iQeGUpUlTplC0aFndJGqZEwv8LxV6a-e53BxW-o%3D&cpn=ubFy5S4qPv_a1hXB&cver=2.20260731.00.00&rn=1&alr=yes", "isp": "Google LLC", "org": "Google LLC"}, "geometry": {"type": "Point", "coordinates": [-122.085, 37.4225]}}, {"type": "Feature", "properties": {"ip": "2607:f8b0:4006:814::2006", "url": "https://static.doubleclick.net/instream/ad_status.js", "isp": "Google LLC", "org": "Google LLC"}, "geometry": {"type": "Point", "coordinates": [-122.085, 37.4225]}}, {"type": "Feature", "properties": {"ip": "2607:f8b0:4006:810::2016", "url": "https://i.ytimg.com/vi/3jUfr6rXcbM/hqdefault.jpg?sqp=-oaymwFACKgBEF5IWvKriqkDMwgBFQAAiEIYAdgBAeIBCggYEAIYBjgBQAHwAQH4Af4JgALQBYoCDAgAEAEYWiBCKGUwDw==&rs=AOn4CLDq84SBEK9lcwb_fVMZnzhY_hv89g", "isp": "Google LLC", "org": "Google LLC"}, "geometry": {"type": "Point", "coordinates": [-122.085, 37.4225]}}, {"type": "Feature", "properties": {"ip": "2001:4860:4826:400::", "url": "https://www.youtube.com/youtubei/v1/log_event?alt=json", "isp": "Google LLC", "org": "Google LLC"}, "geometry": {"type": "Point", "coordinates": [-73.5674, 45.5019]}}, {"type": "Feature", "properties": {"ip": "2607:f8b0:4006:818::2001", "url": "https://yt3.ggpht.com/VunTf0NzCeboiPjbesBdnQuxaF3Lja7UGRbBGQAWRJgMSTj9TTLO3pS1X9qPOJGCNnmPrXeY=s68-c-k-c0x00ffffff-no-rj", "isp": "Google LLC", "org": "Google LLC"}, "geometry": {"type": "Point", "coordinates": [-122.085, 37.4225]}}, {"type": "Feature", "properties": {"ip": "142.250.65.70", "url": "https://ad.doubleclick.net/ddm/trackimp/N5295.5087813DEMANDGEN/B34614698.452687517;dc_pre=CNDT2u3u_ZUDFeoHIQQdKm4jcg;dc_trk_aid=628526056;dc_trk_cid=246611925;ord=261550477;dc_lat=;dc_rdid=;tag_for_child_directed_treatment=;tfua=;gdpr=;gdpr_consent=;ltd=;dc_tdv=1;dc_rui=1;dc_exteid=6955857388540327741;dc_av=0;dc_sk=0;dc_ctype=161;dc_ref=https://www.youtube.com;dc_eps=AHas8cAUoTYCQnXygC4XHxRVNewLCa6cJXGw31uT88MkjoX3mHBC1uys5zTJikwg96KU-dvVVHu-DS8uPtJ8vg;dc_pubid=2;dc_btype=23?gclid=CjwKCAjwj7HTBhBiEiwA8s35OsKqzNzvKe0-vkO7OMeQD-l02nOP3KT8EiLEKfcNWsZSpC_2o2VcXBoCK1wQAvD_BwE&ase=2", "isp": "Google LLC", "org": "Google LLC"}, "geometry": {"type": "Point", "coordinates": [-77.0369, 38.9072]}}, {"type": "Feature", "properties": {"ip": "2607:f8b0:4006:804::2001", "url": "https://lh3.googleusercontent.com/9WPWlw76wxCv_woizsE84X7q-SdF_Q3iwRH4atC1Q3Jf-sEzg9X6WukIOrKnDuUkGGzRPds=s240-c-k-c0x00ffffff-no-rj", "isp": "Google LLC", "org": "Google LLC"}, "geometry": {"type": "Point", "coordinates": [-122.085, 37.4225]}}, {"type": "Feature", "properties": {"ip": "2607:f8b0:4006:818::2002", "url": "https://googleads.g.doubleclick.net/pagead/id", "isp": "Google LLC", "org": "Google LLC"}, "geometry": {"type": "Point", "coordinates": [-122.085, 37.4225]}}, {"type": "Feature", "properties": {"ip": "2607:f8b0:4006:80f::200e", "url": "https://studio.youtube.com/persist_identity", "isp": "Google LLC", "org": "Google LLC"}, "geometry": {"type": "Point", "coordinates": [-122.085, 37.4225]}}, {"type": "Feature", "properties": {"ip": "2607:f8b0:4006:823::200e", "url": "https://accounts.youtube.com/RotateCookiesPage?origin=https://www.youtube.com&yt_pid=1", "isp": "Google LLC", "org": "Google LLC"}, "geometry": {"type": "Point", "coordinates": [-122.085, 37.4225]}}, {"type": "Feature", "properties": {"ip": "2607:f8b0:4006:80f::2003", "url": "https://fonts.gstatic.com/s/roboto/v51/KFO7CnqEu92Fr1ME7kSn66aGLdTylUAMa3yUBA.woff2", "isp": "Google LLC", "org": "Google LLC"}, "geometry": {"type": "Point", "coordinates": [-122.085, 37.4225]}}, {"type": "Feature", "properties": {"ip": "2607:f8b0:4006:811::2003", "url": "https://www.gstatic.com/eureka/clank/150/cast_sender.js", "isp": "Google LLC", "org": "Google LLC"}, "geometry": {"type": "Point", "coordinates": [-122.085, 37.4225]}}, {"type": "Feature", "properties": {"ip": "2001:4860:482b:400::", "url": "https://www.youtube.com/youtubei/v1/log_event?alt=json", "isp": "Google LLC", "org": "Google LLC"}, "geometry": {"type": "Point", "coordinates": [-73.5674, 45.5019]}}, {"type": "Feature", "properties": {"ip": "2607:f8b0:4006:802::2003", "url": "https://www.gstatic.com/youtube/img/creator/video_collaborations/cluster_size_32x32_avatars_2_index_0.svg", "isp": "Google LLC", "org": "Google LLC"}, "geometry": {"type": "Point", "coordinates": [-122.085, 37.4225]}}]}